{
  "type": "FeatureCollection",
  "features": [
    {
      "type": "Feature",
      "properties": {
        "norad_id": 30326,
        "name": "FENGYUN 1C DEB",
        "group": "fengyun-1c-debris",
        "lat": -64.78451038169345,
        "lon": 40.876436607066175,
        "alt_km": 1014.4222886852585,
        "timestamp": "2025-12-18T21:31:51.277242+00:00",
        "meta_object_name": "FENGYUN 1C DEB",
        "meta_object_id": "1999-025AAM",
        "meta_epoch": "2025-12-18T06:28:35.333760",
        "meta_mean_motion": 13.85477756,
        "meta_eccentricity": 0.01421859,
        "meta_inclination": 98.6541,
        "meta_ra_of_asc_node": 239.1668,
        "meta_arg_of_pericenter": 15.564,
        "meta_mean_anomaly": 344.9822,
        "meta_ephemeris_type": 0,
        "meta_classification_type": "U",
        "meta_norad_cat_id": 30326,
        "meta_element_set_no": 999,
        "meta_rev_at_epoch": 95532,
        "meta_bstar": 0.00016811285,
        "meta_mean_motion_dot": 1.68e-06,
        "meta_mean_motion_ddot": 0,
        "tle_line1": "1 30326U 99025AAM 25352.26985340  .00000168  00000+0  16811-3 0  9997",
        "tle_line2": "2 30326  98.6541 239.1668 0142185  15.5640 344.9822 13.85477756955325"
      },
      "geometry": {
        "type": "Point",
        "coordinates": [
          40.876436607066175,
          -64.78451038169345
        ]
      }
    },
    {
      "type": "Feature",
      "properties": {
        "norad_id": 30327,
        "name": "FENGYUN 1C DEB",
        "group": "fengyun-1c-debris",
        "lat": 60.07627849291239,
        "lon": 81.86598022942087,
        "alt_km": 742.0338039189255,
        "timestamp": "2025-12-18T21:31:51.277253+00:00",
        "meta_object_name": "FENGYUN 1C DEB",
        "meta_object_id": "1999-025AAN",
        "meta_epoch": "2025-12-18T04:44:43.390752",
        "meta_mean_motion": 14.18020837,
        "meta_eccentricity": 0.01173605,
        "meta_inclination": 98.4446,
        "meta_ra_of_asc_node": 246.2431,
        "meta_arg_of_pericenter": 126.9636,
        "meta_mean_anomaly": 23.6261,
        "meta_ephemeris_type": 0,
        "meta_classification_type": "U",
        "meta_norad_cat_id": 30327,
        "meta_element_set_no": 999,
        "meta_rev_at_epoch": 96520,
        "meta_bstar": 0.0012584843,
        "meta_mean_motion_dot": 2.72e-05,
        "meta_mean_motion_ddot": 0,
        "tle_line1": "1 30327U 99025AAN 25352.19772443  .00002720  00000+0  12585-2 0  9997",
        "tle_line2": "2 30327  98.4446 246.2431 0117360 126.9636  23.6261 14.18020837965201"
      },
      "geometry": {
        "type": "Point",
        "coordinates": [
          81.86598022942087,
          60.07627849291239
        ]
      }
    },
    {
      "type": "Feature",
      "properties": {
        "norad_id": 30328,
        "name": "FENGYUN 1C DEB",
        "group": "fengyun-1c-debris",
        "lat": 27.593496471557728,
        "lon": -172.58823922194625,
        "alt_km": 845.4952354568295,
        "timestamp": "2025-12-18T21:31:51.277270+00:00",
        "meta_object_name": "FENGYUN 1C DEB",
        "meta_object_id": "1999-025AAP",
        "meta_epoch": "2025-12-18T07:17:24.488160",
        "meta_mean_motion": 14.12476466,
        "meta_eccentricity": 0.00060213,
        "meta_inclination": 98.6861,
        "meta_ra_of_asc_node": 2.254,
        "meta_arg_of_pericenter": 138.4252,
        "meta_mean_anomaly": 237.9912,
        "meta_ephemeris_type": 0,
        "meta_classification_type": "U",
        "meta_norad_cat_id": 30328,
        "meta_element_set_no": 999,
        "meta_rev_at_epoch": 97343,
        "meta_bstar": 0.0001182653,
        "meta_mean_motion_dot": 1.76e-06,
        "meta_mean_motion_ddot": 0,
        "tle_line1": "1 30328U 99025AAP 25352.30375565  .00000176  00000+0  11827-3 0  9997",
        "tle_line2": "2 30328  98.6861   2.2540 0006021 138.4252 237.9912 14.12476466973433"
      },
      "geometry": {
        "type": "Point",
        "coordinates": [
          -172.58823922194625,
          27.593496471557728
        ]
      }
    },
    {
      "type": "Feature",
      "properties": {
        "norad_id": 30329,
        "name": "FENGYUN 1C DEB",
        "group": "fengyun-1c-debris",
        "lat": -5.21281037405188,
        "lon": -86.93578521163415,
        "alt_km": 848.4008588729075,
        "timestamp": "2025-12-18T21:31:51.277280+00:00",
        "meta_object_name": "FENGYUN 1C DEB",
        "meta_object_id": "1999-025AAQ",
        "meta_epoch": "2025-12-18T06:35:37.248288",
        "meta_mean_motion": 13.86747563,
        "meta_eccentricity": 0.0142232,
        "meta_inclination": 99.2626,
        "meta_ra_of_asc_node": 271.5949,
        "meta_arg_of_pericenter": 20.7715,
        "meta_mean_anomaly": 109.2698,
        "meta_ephemeris_type": 0,
        "meta_classification_type": "U",
        "meta_norad_cat_id": 30329,
        "meta_element_set_no": 999,
        "meta_rev_at_epoch": 95487,
        "meta_bstar": 0.00039705114,
        "meta_mean_motion_dot": 4.57e-06,
        "meta_mean_motion_ddot": 0,
        "tle_line1": "1 30329U 99025AAQ 25352.27473667  .00000457  00000+0  39705-3 0  9993",
        "tle_line2": "2 30329  99.2626 271.5949 0142232  20.7715 109.2698 13.86747563954874"
      },
      "geometry": {
        "type": "Point",
        "coordinates": [
          -86.93578521163415,
          -5.21281037405188
        ]
      }
    },
    {
      "type": "Feature",
      "properties": {
        "norad_id": 30330,
        "name": "FENGYUN 1C DEB",
        "group": "fengyun-1c-debris",
        "lat": -69.36564877143194,
        "lon": 9.45044837810738,
        "alt_km": 1031.8311301643107,
        "timestamp": "2025-12-18T21:31:51.277291+00:00",
        "meta_object_name": "FENGYUN 1C DEB",
        "meta_object_id": "1999-025AAR",
        "meta_epoch": "2025-12-17T21:52:25.440384",
        "meta_mean_motion": 13.82074151,
        "meta_eccentricity": 0.01876685,
        "meta_inclination": 98.8861,
        "meta_ra_of_asc_node": 343.9729,
        "meta_arg_of_pericenter": 170.828,
        "meta_mean_anomaly": 254.2963,
        "meta_ephemeris_type": 0,
        "meta_classification_type": "U",
        "meta_norad_cat_id": 30330,
        "meta_element_set_no": 999,
        "meta_rev_at_epoch": 94729,
        "meta_bstar": 0.001065803,
        "meta_mean_motion_dot": 1.271e-05,
        "meta_mean_motion_ddot": 0,
        "tle_line1": "1 30330U 99025AAR 25351.91140556  .00001271  00000+0  10658-2 0  9993",
        "tle_line2": "2 30330  98.8861 343.9729 0187668 170.8280 254.2963 13.82074151947294"
      },
      "geometry": {
        "type": "Point",
        "coordinates": [
          9.45044837810738,
          -69.36564877143194
        ]
      }
    },
    {
      "type": "Feature",
      "properties": {
        "norad_id": 30331,
        "name": "FENGYUN 1C DEB",
        "group": "fengyun-1c-debris",
        "lat": 33.50919267730559,
        "lon": -146.68440677895578,
        "alt_km": 962.3348903797878,
        "timestamp": "2025-12-18T21:31:51.277301+00:00",
        "meta_object_name": "FENGYUN 1C DEB",
        "meta_object_id": "1999-025AAS",
        "meta_epoch": "2025-12-18T02:12:04.387680",
        "meta_mean_motion": 13.97835757,
        "meta_eccentricity": 0.00960784,
        "meta_inclination": 98.9557,
        "meta_ra_of_asc_node": 26.5369,
        "meta_arg_of_pericenter": 353.2721,
        "meta_mean_anomaly": 61.4466,
        "meta_ephemeris_type": 0,
        "meta_classification_type": "U",
        "meta_norad_cat_id": 30331,
        "meta_element_set_no": 999,
        "meta_rev_at_epoch": 96194,
        "meta_bstar": 0.00036125096,
        "meta_mean_motion_dot": 4.88e-06,
        "meta_mean_motion_ddot": 0,
        "tle_line1": "1 30331U 99025AAS 25352.09171745  .00000488  00000+0  36125-3 0  9995",
        "tle_line2": "2 30331  98.9557  26.5369 0096078 353.2721  61.4466 13.97835757961940"
      },
      "geometry": {
        "type": "Point",
        "coordinates": [
          -146.68440677895578,
          33.50919267730559
        ]
      }
    },
    {
      "type": "Feature",
      "properties": {
        "norad_id": 30332,
        "name": "FENGYUN 1C DEB",
        "group": "fengyun-1c-debris",
        "lat": 58.026833493791266,
        "lon": -51.38102574198502,
        "alt_km": 853.2568701300524,
        "timestamp": "2025-12-18T21:31:51.277344+00:00",
        "meta_object_name": "FENGYUN 1C DEB",
        "meta_object_id": "1999-025AAT",
        "meta_epoch": "2025-12-17T12:41:54.960576",
        "meta_mean_motion": 13.76713771,
        "meta_eccentricity": 0.01781489,
        "meta_inclination": 99.7155,
        "meta_ra_of_asc_node": 323.1515,
        "meta_arg_of_pericenter": 90.5796,
        "meta_mean_anomaly": 33.2455,
        "meta_ephemeris_type": 0,
        "meta_classification_type": "U",
        "meta_norad_cat_id": 30332,
        "meta_element_set_no": 999,
        "meta_rev_at_epoch": 94781,
        "meta_bstar": 0.00038289638,
        "meta_mean_motion_dot": 3.77e-06,
        "meta_mean_motion_ddot": 0,
        "tle_line1": "1 30332U 99025AAT 25351.52910834  .00000377  00000+0  38290-3 0  9995",
        "tle_line2": "2 30332  99.7155 323.1515 0178148  90.5796  33.2455 13.76713771947818"
      },
      "geometry": {
        "type": "Point",
        "coordinates": [
          -51.38102574198502,
          58.026833493791266
        ]
      }
    }
  ]
}